CCSDS_OMM_VERS = 2.0
CREATION_DATE  = 
ORIGINATOR     = 

OBJECT_NAME    = UNKNOWN
OBJECT_ID      = 
CENTER_NAME    = EARTH
REF_FRAME      = TEME
TIME_SYSTEM    = UTC
MEAN_ELEMENT_THEORY = SGP/SGP4

EPOCH          = 2026-02-23T11:24:07.382016
MEAN_MOTION    = 9.33817338
ECCENTRICITY   = .1469768
INCLINATION    = 54.5067
RA_OF_ASC_NODE = 100.7687
ARG_OF_PERICENTER = 117.7640
MEAN_ANOMALY   = 257.9790

EPHEMERIS_TYPE = 0
CLASSIFICATION_TYPE = U
NORAD_CAT_ID   = 81779
ELEMENT_SET_NO = 999
REV_AT_EPOCH   = 48711
BSTAR          = -.28063E+0
MEAN_MOTION_DOT = -.4389E-4
MEAN_MOTION_DDOT = 0

CCSDS_OMM_VERS = 2.0
CREATION_DATE  = 
ORIGINATOR     = 

OBJECT_NAME    = UNKNOWN
OBJECT_ID      = 
CENTER_NAME    = EARTH
REF_FRAME      = TEME
TIME_SYSTEM    = UTC
MEAN_ELEMENT_THEORY = SGP/SGP4

EPOCH          = 2026-02-21T08:47:25.330560
MEAN_MOTION    = 13.11284038
ECCENTRICITY   = .0895176
INCLINATION    = 65.8322
RA_OF_ASC_NODE = 297.1173
ARG_OF_PERICENTER = 251.2658
MEAN_ANOMALY   = 98.9265

EPHEMERIS_TYPE = 0
CLASSIFICATION_TYPE = U
NORAD_CAT_ID   = 81792
ELEMENT_SET_NO = 999
REV_AT_EPOCH   = 8929
BSTAR          = .4919E-3
MEAN_MOTION_DOT = .1337E-4
MEAN_MOTION_DDOT = 0

CCSDS_OMM_VERS = 2.0
CREATION_DATE  = 
ORIGINATOR     = 

OBJECT_NAME    = UNKNOWN
OBJECT_ID      = 
CENTER_NAME    = EARTH
REF_FRAME      = TEME
TIME_SYSTEM    = UTC
MEAN_ELEMENT_THEORY = SGP/SGP4

EPOCH          = 2026-02-23T05:43:39.054144
MEAN_MOTION    = 12.37999442
ECCENTRICITY   = .026194
INCLINATION    = 103.8065
RA_OF_ASC_NODE = 340.2155
ARG_OF_PERICENTER = 106.4145
MEAN_ANOMALY   = 256.5871

EPHEMERIS_TYPE = 0
CLASSIFICATION_TYPE = U
NORAD_CAT_ID   = 81812
ELEMENT_SET_NO = 999
REV_AT_EPOCH   = 54953
BSTAR          = .49111E-1
MEAN_MOTION_DOT = .7145E-4
MEAN_MOTION_DDOT = 0

CCSDS_OMM_VERS = 2.0
CREATION_DATE  = 
ORIGINATOR     = 

OBJECT_NAME    = UNKNOWN
OBJECT_ID      = 
CENTER_NAME    = EARTH
REF_FRAME      = TEME
TIME_SYSTEM    = UTC
MEAN_ELEMENT_THEORY = SGP/SGP4

EPOCH          = 2026-02-23T13:48:28.144800
MEAN_MOTION    = 13.89720202
ECCENTRICITY   = .017497
INCLINATION    = 66.2380
RA_OF_ASC_NODE = 114.5033
ARG_OF_PERICENTER = 206.5599
MEAN_ANOMALY   = 152.6431

EPHEMERIS_TYPE = 0
CLASSIFICATION_TYPE = U
NORAD_CAT_ID   = 81816
ELEMENT_SET_NO = 999
REV_AT_EPOCH   = 61946
BSTAR          = .14751E-2
MEAN_MOTION_DOT = .1969E-4
MEAN_MOTION_DDOT = 0

CCSDS_OMM_VERS = 2.0
CREATION_DATE  = 
ORIGINATOR     = 

OBJECT_NAME    = UNKNOWN
OBJECT_ID      = 
CENTER_NAME    = EARTH
REF_FRAME      = TEME
TIME_SYSTEM    = UTC
MEAN_ELEMENT_THEORY = SGP/SGP4

EPOCH          = 2026-02-19T05:05:58.437024
MEAN_MOTION    = 12.47814244
ECCENTRICITY   = .0030699
INCLINATION    = 102.1740
RA_OF_ASC_NODE = 153.3389
ARG_OF_PERICENTER = 343.5242
MEAN_ANOMALY   = 16.4826

EPHEMERIS_TYPE = 0
CLASSIFICATION_TYPE = U
NORAD_CAT_ID   = 81819
ELEMENT_SET_NO = 999
REV_AT_EPOCH   = 55655
BSTAR          = .65101E-2
MEAN_MOTION_DOT = .917E-5
MEAN_MOTION_DDOT = 0

CCSDS_OMM_VERS = 2.0
CREATION_DATE  = 
ORIGINATOR     = 

OBJECT_NAME    = UNKNOWN
OBJECT_ID      = 
CENTER_NAME    = EARTH
REF_FRAME      = TEME
TIME_SYSTEM    = UTC
MEAN_ELEMENT_THEORY = SGP/SGP4

EPOCH          = 2026-02-23T14:52:59.802240
MEAN_MOTION    = 14.36314344
ECCENTRICITY   = .004775
INCLINATION    = 65.8415
RA_OF_ASC_NODE = 138.1747
ARG_OF_PERICENTER = 296.8961
MEAN_ANOMALY   = 62.7257

EPHEMERIS_TYPE = 0
CLASSIFICATION_TYPE = U
NORAD_CAT_ID   = 81824
ELEMENT_SET_NO = 999
REV_AT_EPOCH   = 63505
BSTAR          = .17497E-2
MEAN_MOTION_DOT = .5102E-4
MEAN_MOTION_DDOT = 0

CCSDS_OMM_VERS = 2.0
CREATION_DATE  = 
ORIGINATOR     = 

OBJECT_NAME    = UNKNOWN
OBJECT_ID      = 
CENTER_NAME    = EARTH
REF_FRAME      = TEME
TIME_SYSTEM    = UTC
MEAN_ELEMENT_THEORY = SGP/SGP4

EPOCH          = 2026-02-23T06:36:11.238048
MEAN_MOTION    = 12.93756803
ECCENTRICITY   = .0025138
INCLINATION    = 90.2458
RA_OF_ASC_NODE = 4.4980
ARG_OF_PERICENTER = 190.1609
MEAN_ANOMALY   = 169.9005

EPHEMERIS_TYPE = 0
CLASSIFICATION_TYPE = U
NORAD_CAT_ID   = 81833
ELEMENT_SET_NO = 999
REV_AT_EPOCH   = 46189
BSTAR          = .32525E-3
MEAN_MOTION_DOT = .97E-6
MEAN_MOTION_DDOT = 0

CCSDS_OMM_VERS = 2.0
CREATION_DATE  = 
ORIGINATOR     = 

OBJECT_NAME    = UNKNOWN
OBJECT_ID      = 
CENTER_NAME    = EARTH
REF_FRAME      = TEME
TIME_SYSTEM    = UTC
MEAN_ELEMENT_THEORY = SGP/SGP4

EPOCH          = 2026-02-18T03:02:06.506880
MEAN_MOTION    = 14.57992297
ECCENTRICITY   = .0044471
INCLINATION    = 67.7591
RA_OF_ASC_NODE = 90.0093
ARG_OF_PERICENTER = 303.2421
MEAN_ANOMALY   = 88.1018

EPHEMERIS_TYPE = 0
CLASSIFICATION_TYPE = U
NORAD_CAT_ID   = 81838
ELEMENT_SET_NO = 999
REV_AT_EPOCH   = 64315
BSTAR          = .11868E-2
MEAN_MOTION_DOT = .545E-4
MEAN_MOTION_DDOT = 0

CCSDS_OMM_VERS = 2.0
CREATION_DATE  = 
ORIGINATOR     = 

OBJECT_NAME    = UNKNOWN
OBJECT_ID      = 
CENTER_NAME    = EARTH
REF_FRAME      = TEME
TIME_SYSTEM    = UTC
MEAN_ELEMENT_THEORY = SGP/SGP4

EPOCH          = 2026-02-23T10:35:08.935296
MEAN_MOTION    = 14.33665810
ECCENTRICITY   = .0060624
INCLINATION    = 82.9097
RA_OF_ASC_NODE = 222.9258
ARG_OF_PERICENTER = 289.1402
MEAN_ANOMALY   = 70.3230

EPHEMERIS_TYPE = 0
CLASSIFICATION_TYPE = U
NORAD_CAT_ID   = 81844
ELEMENT_SET_NO = 999
REV_AT_EPOCH   = 63330
BSTAR          = .2714E-2
MEAN_MOTION_DOT = .77E-4
MEAN_MOTION_DDOT = 0

CCSDS_OMM_VERS = 2.0
CREATION_DATE  = 
ORIGINATOR     = 

OBJECT_NAME    = UNKNOWN
OBJECT_ID      = 
CENTER_NAME    = EARTH
REF_FRAME      = TEME
TIME_SYSTEM    = UTC
MEAN_ELEMENT_THEORY = SGP/SGP4

EPOCH          = 2026-02-21T11:18:20.911968
MEAN_MOTION    = 14.85626797
ECCENTRICITY   = .0088211
INCLINATION    = 97.6767
RA_OF_ASC_NODE = 241.9580
ARG_OF_PERICENTER = 72.5510
MEAN_ANOMALY   = 318.6640

EPHEMERIS_TYPE = 0
CLASSIFICATION_TYPE = U
NORAD_CAT_ID   = 81845
ELEMENT_SET_NO = 999
REV_AT_EPOCH   = 66002
BSTAR          = .27141E-3
MEAN_MOTION_DOT = .2465E-4
MEAN_MOTION_DDOT = 0

CCSDS_OMM_VERS = 2.0
CREATION_DATE  = 
ORIGINATOR     = 

OBJECT_NAME    = UNKNOWN
OBJECT_ID      = 
CENTER_NAME    = EARTH
REF_FRAME      = TEME
TIME_SYSTEM    = UTC
MEAN_ELEMENT_THEORY = SGP/SGP4

EPOCH          = 2026-02-02T03:08:14.204544
MEAN_MOTION    = 13.32666652
ECCENTRICITY   = .0766542
INCLINATION    = 65.6733
RA_OF_ASC_NODE = 306.7363
ARG_OF_PERICENTER = 350.9348
MEAN_ANOMALY   = 7.8479

EPHEMERIS_TYPE = 0
CLASSIFICATION_TYPE = U
NORAD_CAT_ID   = 81864
ELEMENT_SET_NO = 999
REV_AT_EPOCH   = 55768
BSTAR          = .94023E-3
MEAN_MOTION_DOT = .244E-4
MEAN_MOTION_DDOT = 0

CCSDS_OMM_VERS = 2.0
CREATION_DATE  = 
ORIGINATOR     = 

OBJECT_NAME    = UNKNOWN
OBJECT_ID      = 
CENTER_NAME    = EARTH
REF_FRAME      = TEME
TIME_SYSTEM    = UTC
MEAN_ELEMENT_THEORY = SGP/SGP4

EPOCH          = 2026-02-23T05:39:23.389632
MEAN_MOTION    = 13.88240703
ECCENTRICITY   = .0061074
INCLINATION    = 82.8078
RA_OF_ASC_NODE = 332.7090
ARG_OF_PERICENTER = 156.6255
MEAN_ANOMALY   = 355.9949

EPHEMERIS_TYPE = 0
CLASSIFICATION_TYPE = U
NORAD_CAT_ID   = 81865
ELEMENT_SET_NO = 999
REV_AT_EPOCH   = 61860
BSTAR          = .89764E-3
MEAN_MOTION_DOT = .1104E-4
MEAN_MOTION_DDOT = 0

