UNKNOWN                 
1 81779U          26054.47508544 -.00004389  00000+0 -28063+0 0  9999
2 81779  54.5067 100.7687 1469768 117.7640 257.9790  9.33817338487112
UNKNOWN                 
1 81792U          26052.36626540  .00001337  00000+0  49190-3 0  9993
2 81792  65.8322 297.1173 0895176 251.2658  98.9265 13.11284038 89298
UNKNOWN                 
1 81812U          26054.23864646  .00007145  00000+0  49111-1 0  9999
2 81812 103.8065 340.2155 0261940 106.4145 256.5871 12.37999442549538
UNKNOWN                 
1 81816U          26054.57532575  .00001969  00000+0  14751-2 0  9994
2 81816  66.2380 114.5033 0174970 206.5599 152.6431 13.89720202619464
UNKNOWN                 
1 81819U          26050.21248191  .00000917  00000+0  65101-2 0  9999
2 81819 102.1740 153.3389 0030699 343.5242  16.4826 12.47814244556556
UNKNOWN                 
1 81824U          26054.62013660  .00005102  00000+0  17497-2 0  9991
2 81824  65.8415 138.1747 0047750 296.8961  62.7257 14.36314344635050
UNKNOWN                 
1 81833U          26054.27513007  .00000097  00000+0  32525-3 0  9990
2 81833  90.2458   4.4980 0025138 190.1609 169.9005 12.93756803461895
UNKNOWN                 
1 81838U          26049.12646420  .00005450  00000+0  11868-2 0  9993
2 81838  67.7591  90.0093 0044471 303.2421  88.1018 14.57992297643151
UNKNOWN                 
1 81844U          26054.44107564  .00007700  00000+0  27140-2 0  9992
2 81844  82.9097 222.9258 0060624 289.1402  70.3230 14.33665810633303
UNKNOWN                 
1 81845U          26052.47107537  .00002465  00000+0  27141-3 0  9999
2 81845  97.6767 241.9580 0088211  72.5510 318.6640 14.85626797660026
UNKNOWN                 
1 81864U          26033.13071996  .00002440  00000+0  94023-3 0  9997
2 81864  65.6733 306.7363 0766542 350.9348   7.8479 13.32666652557685
UNKNOWN                 
1 81865U          26054.23568738  .00001104  00000+0  89764-3 0  9999
2 81865  82.8078 332.7090 0061074 156.6255 355.9949 13.88240703618606
